{
 "generated_at": "2026-07-13T08:17:10Z",
 "sources": [
  {
   "name": "CelesTrak",
   "url": "https://celestrak.org/NORAD/elements/",
   "license": "frei verfügbar; Attribution. Ursprünglich USSPACECOM/Space-Track."
  },
  {
   "name": "GCAT (J. McDowell, planet4589.org)",
   "url": "https://planet4589.org/space/gcat/",
   "license": "CC-BY 4.0"
  }
 ],
 "satellites": [
  {
   "norad": 69177,
   "name": "STRIX-7",
   "intl": "2026-112A",
   "group": "sar",
   "gcat": {
    "class": "B",
    "category": "IMG-R",
    "owner": "SYNSP",
    "state": "J"
   },
   "omm": {
    "OBJECT_NAME": "STRIX-7",
    "OBJECT_ID": "2026-112A",
    "EPOCH": "2026-07-12T20:28:40.474272",
    "MEAN_MOTION": 15.01598732,
    "ECCENTRICITY": 0.0024466,
    "INCLINATION": 44.908,
    "RA_OF_ASC_NODE": 57.6303,
    "ARG_OF_PERICENTER": 194.9078,
    "MEAN_ANOMALY": 165.1074,
    "EPHEMERIS_TYPE": 0,
    "CLASSIFICATION_TYPE": "U",
    "NORAD_CAT_ID": 69177,
    "ELEMENT_SET_NO": 999,
    "REV_AT_EPOCH": 773,
    "BSTAR": 0.00018341,
    "MEAN_MOTION_DOT": 0.00002195,
    "MEAN_MOTION_DDOT": 0
   }
  },
  {
   "norad": 69701,
   "name": "STRIX-8",
   "intl": "2026-146A",
   "group": "sar",
   "gcat": {
    "class": "B",
    "category": "IMG-R",
    "owner": "SYNSP",
    "state": "J"
   },
   "omm": {
    "OBJECT_NAME": "STRIX-8",
    "OBJECT_ID": "2026-146A",
    "EPOCH": "2026-07-12T19:53:32.097408",
    "MEAN_MOTION": 15.04422405,
    "ECCENTRICITY": 0.0007535,
    "INCLINATION": 41.9901,
    "RA_OF_ASC_NODE": 26.2015,
    "ARG_OF_PERICENTER": 6.4469,
    "MEAN_ANOMALY": 353.6454,
    "EPHEMERIS_TYPE": 0,
    "CLASSIFICATION_TYPE": "U",
    "NORAD_CAT_ID": 69701,
    "ELEMENT_SET_NO": 999,
    "REV_AT_EPOCH": 242,
    "BSTAR": 0.00019548,
    "MEAN_MOTION_DOT": 0.00002588,
    "MEAN_MOTION_DDOT": 0
   }
  },
  {
   "norad": 37849,
   "name": "SUOMI NPP",
   "intl": "2011-061A",
   "group": "weather",
   "gcat": {
    "class": "C",
    "category": "MET",
    "owner": "GSFC/NOAA",
    "state": "US"
   },
   "omm": {
    "OBJECT_NAME": "SUOMI NPP",
    "OBJECT_ID": "2011-061A",
    "EPOCH": "2026-07-12T20:33:17.693856",
    "MEAN_MOTION": 14.19522337,
    "ECCENTRICITY": 0.000065,
    "INCLINATION": 98.7956,
    "RA_OF_ASC_NODE": 134.5579,
    "ARG_OF_PERICENTER": 228.5544,
    "MEAN_ANOMALY": 131.5576,
    "EPHEMERIS_TYPE": 0,
    "CLASSIFICATION_TYPE": "U",
    "NORAD_CAT_ID": 37849,
    "ELEMENT_SET_NO": 999,
    "REV_AT_EPOCH": 76208,
    "BSTAR": 0.000026468,
    "MEAN_MOTION_DOT": 1.1e-7,
    "MEAN_MOTION_DDOT": 0
   }
  },
  {
   "norad": 54754,
   "name": "SWOT",
   "intl": "2022-173A",
   "group": "resource",
   "gcat": {
    "class": "C",
    "category": "EOSCI",
    "owner": "CNES/JPL",
    "state": "F"
   },
   "omm": {
    "OBJECT_NAME": "SWOT",
    "OBJECT_ID": "2022-173A",
    "EPOCH": "2026-07-12T20:30:44.464320",
    "MEAN_MOTION": 14.00172295,
    "ECCENTRICITY": 0.0000284,
    "INCLINATION": 77.6108,
    "RA_OF_ASC_NODE": 0.6577,
    "ARG_OF_PERICENTER": 78.5966,
    "MEAN_ANOMALY": 281.5217,
    "EPHEMERIS_TYPE": 0,
    "CLASSIFICATION_TYPE": "U",
    "NORAD_CAT_ID": 54754,
    "ELEMENT_SET_NO": 999,
    "REV_AT_EPOCH": 18274,
    "BSTAR": 0.000062439,
    "MEAN_MOTION_DOT": 9e-7,
    "MEAN_MOTION_DDOT": 0
   }
  },
  {
   "norad": 36605,
   "name": "TANDEM-X",
   "intl": "2010-030A",
   "group": "resource",
   "gcat": {
    "class": null,
    "category": "IMG-R",
    "owner": "DLR2/EASF",
    "state": "D"
   },
   "omm": {
    "OBJECT_NAME": "TANDEM-X",
    "OBJECT_ID": "2010-030A",
    "EPOCH": "2026-07-07T11:29:58.986816",
    "MEAN_MOTION": 15.19154052,
    "ECCENTRICITY": 0.0001887,
    "INCLINATION": 97.4457,
    "RA_OF_ASC_NODE": 195.8973,
    "ARG_OF_PERICENTER": 94.3019,
    "MEAN_ANOMALY": 265.8431,
    "EPHEMERIS_TYPE": 0,
    "CLASSIFICATION_TYPE": "U",
    "NORAD_CAT_ID": 36605,
    "ELEMENT_SET_NO": 999,
    "REV_AT_EPOCH": 88972,
    "BSTAR": 0.000021566,
    "MEAN_MOTION_DOT": 0.00000386,
    "MEAN_MOTION_DDOT": 0
   }
  },
  {
   "norad": 25397,
   "name": "TECHSAT 1B (GO-32)",
   "intl": "1998-043D",
   "group": "resource",
   "gcat": {
    "class": "A",
    "category": "COM",
    "owner": "TECN",
    "state": "IL"
   },
   "omm": {
    "OBJECT_NAME": "TECHSAT 1B (GO-32)",
    "OBJECT_ID": "1998-043D",
    "EPOCH": "2026-07-12T13:30:04.838400",
    "MEAN_MOTION": 14.2443303,
    "ECCENTRICITY": 0.000212,
    "INCLINATION": 99.0083,
    "RA_OF_ASC_NODE": 186.9627,
    "ARG_OF_PERICENTER": 118.5783,
    "MEAN_ANOMALY": 241.5609,
    "EPHEMERIS_TYPE": 0,
    "CLASSIFICATION_TYPE": "U",
    "NORAD_CAT_ID": 25397,
    "ELEMENT_SET_NO": 999,
    "REV_AT_EPOCH": 45494,
    "BSTAR": 0.000028421,
    "MEAN_MOTION_DOT": 1.9e-7,
    "MEAN_MOTION_DDOT": 0
   }
  },
  {
   "norad": 25994,
   "name": "TERRA",
   "intl": "1999-068A",
   "group": "resource",
   "gcat": {
    "class": "C",
    "category": "IMG",
    "owner": "GSFC",
    "state": "US"
   },
   "omm": {
    "OBJECT_NAME": "TERRA",
    "OBJECT_ID": "1999-068A",
    "EPOCH": "2026-07-12T20:00:12.645216",
    "MEAN_MOTION": 14.61122648,
    "ECCENTRICITY": 0.0003317,
    "INCLINATION": 97.9443,
    "RA_OF_ASC_NODE": 242.3611,
    "ARG_OF_PERICENTER": 127.4066,
    "MEAN_ANOMALY": 284.6397,
    "EPHEMERIS_TYPE": 0,
    "CLASSIFICATION_TYPE": "U",
    "NORAD_CAT_ID": 25994,
    "ELEMENT_SET_NO": 999,
    "REV_AT_EPOCH": 41335,
    "BSTAR": 0.000052367,
    "MEAN_MOTION_DOT": 0.00000213,
    "MEAN_MOTION_DDOT": 0
   }
  },
  {
   "norad": 31698,
   "name": "TERRASAR-X",
   "intl": "2007-026A",
   "group": "resource",
   "gcat": {
    "class": null,
    "category": "IMG-R",
    "owner": "DLR2/EASF",
    "state": "D"
   },
   "omm": {
    "OBJECT_NAME": "TERRASAR-X",
    "OBJECT_ID": "2007-026A",
    "EPOCH": "2026-07-07T11:29:59.023968",
    "MEAN_MOTION": 15.19153986,
    "ECCENTRICITY": 0.0001878,
    "INCLINATION": 97.4461,
    "RA_OF_ASC_NODE": 195.8972,
    "ARG_OF_PERICENTER": 86.954,
    "MEAN_ANOMALY": 273.1909,
    "EPHEMERIS_TYPE": 0,
    "CLASSIFICATION_TYPE": "U",
    "NORAD_CAT_ID": 31698,
    "ELEMENT_SET_NO": 999,
    "REV_AT_EPOCH": 5630,
    "BSTAR": 0.000014624,
    "MEAN_MOTION_DOT": 0.0000024,
    "MEAN_MOTION_DDOT": 0
   }
  },
  {
   "norad": 33396,
   "name": "THEOS",
   "intl": "2008-049A",
   "group": "resource",
   "gcat": {
    "class": "C",
    "category": "IMG",
    "owner": "GISTDA",
    "state": "T"
   },
   "omm": {
    "OBJECT_NAME": "THEOS",
    "OBJECT_ID": "2008-049A",
    "EPOCH": "2026-07-12T21:31:03.309312",
    "MEAN_MOTION": 14.20135647,
    "ECCENTRICITY": 0.0001145,
    "INCLINATION": 98.5567,
    "RA_OF_ASC_NODE": 250.3436,
    "ARG_OF_PERICENTER": 86.6596,
    "MEAN_ANOMALY": 273.4711,
    "EPHEMERIS_TYPE": 0,
    "CLASSIFICATION_TYPE": "U",
    "NORAD_CAT_ID": 33396,
    "ELEMENT_SET_NO": 999,
    "REV_AT_EPOCH": 92161,
    "BSTAR": -0.00010342,
    "MEAN_MOTION_DOT": -0.00000263,
    "MEAN_MOTION_DDOT": 0
   }
  },
  {
   "norad": 55973,
   "name": "TIANMU-1 03",
   "intl": "2023-039A",
   "group": "weather",
   "gcat": {
    "class": "B",
    "category": "MET",
    "owner": "TIANMU",
    "state": "CN"
   },
   "omm": {
    "OBJECT_NAME": "TIANMU-1 03",
    "OBJECT_ID": "2023-039A",
    "EPOCH": "2026-07-12T20:21:16.018848",
    "MEAN_MOTION": 15.48001137,
    "ECCENTRICITY": 0.0002777,
    "INCLINATION": 97.5235,
    "RA_OF_ASC_NODE": 8.8369,
    "ARG_OF_PERICENTER": 33.1097,
    "MEAN_ANOMALY": 327.0326,
    "EPHEMERIS_TYPE": 0,
    "CLASSIFICATION_TYPE": "U",
    "NORAD_CAT_ID": 55973,
    "ELEMENT_SET_NO": 999,
    "REV_AT_EPOCH": 18480,
    "BSTAR": 0.0002014,
    "MEAN_MOTION_DOT": 0.00010431,
    "MEAN_MOTION_DDOT": 0
   }
  }
 ]
}
