TECHSAT 1B (GO-32)      
1 25397U 98043D   26193.56255600  .00000019  00000+0  28421-4 0  9990
2 25397  99.0083 186.9627 0002120 118.5783 241.5609 14.24433030454941
TERRA                   
1 25994U 99068A   26193.83347969  .00000213  00000+0  52367-4 0  9993
2 25994  97.9443 242.3611 0003317 127.4066 284.6397 14.61122648413356
TERRASAR-X              
1 31698U 07026A   26188.47915537  .00000240  00000+0  14624-4 0  9994
2 31698  97.4461 195.8972 0001878  86.9540 273.1909 15.19153986 56300
THEOS                   
1 33396U 08049A   26193.89656608 -.00000263  00000+0 -10342-3 0  9999
2 33396  98.5567 250.3436 0001145  86.6596 273.4711 14.20135647921617
TANDEM-X                
1 36605U 10030A   26188.47915494  .00000386  00000+0  21566-4 0  9992
2 36605  97.4457 195.8973 0001887  94.3019 265.8431 15.19154052889726
SUOMI NPP               
1 37849U 11061A   26193.85645479  .00000011  00000+0  26468-4 0  9990
2 37849  98.7956 134.5579 0000650 228.5544 131.5576 14.19522337762080
SWOT                    
1 54754U 22173A   26193.85468130  .00000090  00000+0  62439-4 0  9992
2 54754  77.6108   0.6577 0000284  78.5966 281.5217 14.00172295182745
TIANMU-1 03             
1 55973U 23039A   26193.84810207  .00010431  00000+0  20140-3 0  9995
2 55973  97.5235   8.8369 0002777  33.1097 327.0326 15.48001137184806
STRIX-7                 
1 69177U 26112A   26193.85324623  .00002195  00000+0  18341-3 0  9992
2 69177  44.9080  57.6303 0024466 194.9078 165.1074 15.01598732  7733
STRIX-8                 
1 69701U 26146A   26193.82884372  .00002588  00000+0  19548-3 0  9997
2 69701  41.9901  26.2015 0007535   6.4469 353.6454 15.04422405  2429
